[Satellite]
VERSION=1.1
NAME=INTELSAT 704 (IS-704)
NICKNAME=INTELSAT 704 (IS-704)
TLE1=1 23461U 95001A   11058.60668124  .00000075  00000-0  10000-3 0  2325
TLE2=2 23461   1.6481  74.4683 0002069 294.4614  66.0945  0.99178127 59050
